{
    "links": {
        "self": "http://www.neowsapp.com/rest/v1/neo/3837589?api_key=iIulBulltgU6a56xZRHN4H3l9WmuAYTsLGpBGhQ2"
    },
    "id": "3837589",
    "neo_reference_id": "3837589",
    "name": "(2019 AO2)",
    "designation": "2019 AO2",
    "nasa_jpl_url": "http://ssd.jpl.nasa.gov/sbdb.cgi?sstr=3837589",
    "absolute_magnitude_h": 24.2,
    "estimated_diameter": {
        "kilometers": {
            "estimated_diameter_min": 0.0384197891,
            "estimated_diameter_max": 0.0859092601
        },
        "meters": {
            "estimated_diameter_min": 38.4197891064,
            "estimated_diameter_max": 85.9092601232
        },
        "miles": {
            "estimated_diameter_min": 0.0238729428,
            "estimated_diameter_max": 0.0533815229
        },
        "feet": {
            "estimated_diameter_min": 126.0491808919,
            "estimated_diameter_max": 281.8545369825
        }
    },
    "is_potentially_hazardous_asteroid": false,
    "close_approach_data": [
        {
            "close_approach_date": "2019-01-01",
            "close_approach_date_full": "2019-Jan-01 18:38",
            "epoch_date_close_approach": 1546367880000,
            "relative_velocity": {
                "kilometers_per_second": "8.1781731908",
                "kilometers_per_hour": "29441.4234867558",
                "miles_per_hour": "18293.7556104233"
            },
            "miss_distance": {
                "astronomical": "0.2027708162",
                "lunar": "78.8778475018",
                "kilometers": "30334082.201681494",
                "miles": "18848724.6531488572"
            },
            "orbiting_body": "Earth"
        }
    ],
    "orbital_data": {
        "orbit_id": "1",
        "orbit_determination_date": "2019-01-05 17:42:06",
        "first_observation_date": "2019-01-02",
        "last_observation_date": "2019-01-05",
        "data_arc_in_days": 3,
        "observations_used": 10,
        "orbit_uncertainty": "9",
        "minimum_orbit_intersection": ".201633",
        "jupiter_tisserand_invariant": "5.182",
        "epoch_osculation": "2458486.5",
        "eccentricity": ".03350711859678158",
        "semi_major_axis": "1.225159390814193",
        "inclination": "15.42723111258155",
        "ascending_node_longitude": "97.43691278718271",
        "orbital_period": "495.3216565598854",
        "perihelion_distance": "1.184107829806221",
        "perihelion_argument": "12.71704247478886",
        "aphelion_distance": "1.266210951822165",
        "perihelion_time": "2458496.213960660654",
        "mean_anomaly": "352.9398890770837",
        "mean_motion": ".7268004441806095",
        "equinox": "J2000",
        "orbit_class": {
            "orbit_class_type": "AMO",
            "orbit_class_description": "Near-Earth asteroid orbits similar to that of 1221 Amor",
            "orbit_class_range": "1.017 AU < q (perihelion) < 1.3 AU"
        }
    },
    "is_sentry_object": false
}